[
    {
        "Altitude(m)": 704725.3047435903,
        "Argument of Periapsis(deg)": 0.005695060593313534,
        "Eccentricity": 0.0,
        "Inclination(deg)": 45.0,
        "Latitude(deg)": -7.570001613309559,
        "Longitude(deg)": 67.03266862775857,
        "Mean Anomaly(deg)": -10.596991676259574,
        "RAAN(deg)": 174.9946240292709,
        "Satellite Name": "Constellation 1 791",
        "Satellite Number": 791,
        "Semi-Major Axis(m)": 7083131.272910544,
        "Time(s)": 95
    },
    {
        "Altitude(m)": 704716.2606720458,
        "Argument of Periapsis(deg)": 0.00575500859955894,
        "Eccentricity": 0.0,
        "Inclination(deg)": 45.0,
        "Latitude(deg)": -7.527183903224494,
        "Longitude(deg)": 67.07215069664431,
        "Mean Anomaly(deg)": -10.536290536009737,
        "RAAN(deg)": 174.99456744010533,
        "Satellite Name": "Constellation 1 791",
        "Satellite Number": 791,
        "Semi-Major Axis(m)": 7083131.272910544,
        "Time(s)": 96
    },
    {
        "Altitude(m)": 704707.2347328115,
        "Argument of Periapsis(deg)": 0.005814956605804345,
        "Eccentricity": 0.0,
        "Inclination(deg)": 45.0,
        "Latitude(deg)": -7.484361691210703,
        "Longitude(deg)": 67.11162447400214,
        "Mean Anomaly(deg)": -10.475589395759776,
        "RAAN(deg)": 174.99451085093978,
        "Satellite Name": "Constellation 1 791",
        "Satellite Number": 791,
        "Semi-Major Axis(m)": 7083131.272910544,
        "Time(s)": 97
    },
    {
        "Altitude(m)": 704698.2269480911,
        "Argument of Periapsis(deg)": 0.00587490461204975,
        "Eccentricity": 0.0,
        "Inclination(deg)": 45.0,
        "Latitude(deg)": -7.441535003540018,
        "Longitude(deg)": 67.15108984157493,
        "Mean Anomaly(deg)": -10.414888255509915,
        "RAAN(deg)": 174.9944542617742,
        "Satellite Name": "Constellation 1 791",
        "Satellite Number": 791,
        "Semi-Major Axis(m)": 7083131.272910544,
        "Time(s)": 98
    },
    {
        "Altitude(m)": 704689.2373400095,
        "Argument of Periapsis(deg)": 0.005934852618295156,
        "Eccentricity": 0.0,
        "Inclination(deg)": 45.0,
        "Latitude(deg)": -7.398703866468205,
        "Longitude(deg)": 67.19054684918535,
        "Mean Anomaly(deg)": -10.354187115260054,
        "RAAN(deg)": 174.9943976726086,
        "Satellite Name": "Constellation 1 791",
        "Satellite Number": 791,
        "Semi-Major Axis(m)": 7083131.272910544,
        "Time(s)": 99
    },
    {
        "Altitude(m)": 704680.265930595,
        "Argument of Periapsis(deg)": 0.005994800624540561,
        "Eccentricity": 0.0,
        "Inclination(deg)": 45.0,
        "Latitude(deg)": -7.355868306235299,
        "Longitude(deg)": 67.22999554663845,
        "Mean Anomaly(deg)": -10.293485975010066,
        "RAAN(deg)": 174.99434108344306,
        "Satellite Name": "Constellation 1 791",
        "Satellite Number": 791,
        "Semi-Major Axis(m)": 7083131.272910544,
        "Time(s)": 100
    },
    {
        "Altitude(m)": 704671.3127417989,
        "Argument of Periapsis(deg)": 0.006054748630785968,
        "Eccentricity": 0.0,
        "Inclination(deg)": 45.0,
        "Latitude(deg)": -7.313028349066065,
        "Longitude(deg)": 67.26943598372164,
        "Mean Anomaly(deg)": -10.23278483476023,
        "RAAN(deg)": 174.99428449427748,
        "Satellite Name": "Constellation 1 791",
        "Satellite Number": 791,
        "Semi-Major Axis(m)": 7083131.272910544,
        "Time(s)": 101
    },
    {
        "Altitude(m)": 704662.3777954864,
        "Argument of Periapsis(deg)": 0.006114696637031373,
        "Eccentricity": 0.0,
        "Inclination(deg)": 45.0,
        "Latitude(deg)": -7.270184021169519,
        "Longitude(deg)": 67.30886821020519,
        "Mean Anomaly(deg)": -10.17208369451037,
        "RAAN(deg)": 174.99422790511193,
        "Satellite Name": "Constellation 1 791",
        "Satellite Number": 791,
        "Semi-Major Axis(m)": 7083131.272910544,
        "Time(s)": 102
    },
    {
        "Altitude(m)": 704653.461113436,
        "Argument of Periapsis(deg)": 0.006174644643276778,
        "Eccentricity": 0.0,
        "Inclination(deg)": 45.0,
        "Latitude(deg)": -7.2273353487393805,
        "Longitude(deg)": 67.34829227584218,
        "Mean Anomaly(deg)": -10.111382554260508,
        "RAAN(deg)": 174.99417131594635,
        "Satellite Name": "Constellation 1 791",
        "Satellite Number": 791,
        "Semi-Major Axis(m)": 7083131.272910544,
        "Time(s)": 103
    },
    {
        "Altitude(m)": 704644.5627173331,
        "Argument of Periapsis(deg)": 0.006234592649522184,
        "Eccentricity": 0.0,
        "Inclination(deg)": 45.0,
        "Latitude(deg)": -7.18448235795423,
        "Longitude(deg)": 67.38770806227141,
        "Mean Anomaly(deg)": -10.050681414010544,
        "RAAN(deg)": 174.99411472678077,
        "Satellite Name": "Constellation 1 791",
        "Satellite Number": 791,
        "Semi-Major Axis(m)": 7083131.272910544,
        "Time(s)": 104
    },
    {
        "Altitude(m)": 704635.6826287847,
        "Argument of Periapsis(deg)": 0.00629454065576759,
        "Eccentricity": 0.0,
        "Inclination(deg)": 45.0,
        "Latitude(deg)": -7.141625074977102,
        "Longitude(deg)": 67.42711595540564,
        "Mean Anomaly(deg)": -9.989980273760606,
        "RAAN(deg)": 174.9940581376152,
        "Satellite Name": "Constellation 1 791",
        "Satellite Number": 791,
        "Semi-Major Axis(m)": 7083131.272910544,
        "Time(s)": 105
    },
    {
        "Altitude(m)": 704626.8208693065,
        "Argument of Periapsis(deg)": 0.006354488662012995,
        "Eccentricity": 0.0,
        "Inclination(deg)": 45.0,
        "Latitude(deg)": -7.098763525956387,
        "Longitude(deg)": 67.46651583684961,
        "Mean Anomaly(deg)": -9.92927913351072,
        "RAAN(deg)": 174.99400154844963,
        "Satellite Name": "Constellation 1 791",
        "Satellite Number": 791,
        "Semi-Major Axis(m)": 7083131.272910544,
        "Time(s)": 106
    },
    {
        "Altitude(m)": 704617.9774603317,
        "Argument of Periapsis(deg)": 0.006414436668258401,
        "Eccentricity": 0.0,
        "Inclination(deg)": 45.0,
        "Latitude(deg)": -7.055897737025263,
        "Longitude(deg)": 67.50590775628837,
        "Mean Anomaly(deg)": -9.868577993260885,
        "RAAN(deg)": 174.99394495928408,
        "Satellite Name": "Constellation 1 791",
        "Satellite Number": 791,
        "Semi-Major Axis(m)": 7083131.272910544,
        "Time(s)": 107
    },
    {
        "Altitude(m)": 704609.152423208,
        "Argument of Periapsis(deg)": 0.0064743846745038075,
        "Eccentricity": 0.0,
        "Inclination(deg)": 45.0,
        "Latitude(deg)": -7.013027734301932,
        "Longitude(deg)": 67.54529176339008,
        "Mean Anomaly(deg)": -9.807876853010898,
        "RAAN(deg)": 174.99388837011847,
        "Satellite Name": "Constellation 1 791",
        "Satellite Number": 791,
        "Semi-Major Axis(m)": 7083131.272910544,
        "Time(s)": 108
    },
    {
        "Altitude(m)": 704600.3457791983,
        "Argument of Periapsis(deg)": 0.0065343326807492125,
        "Eccentricity": 0.0,
        "Inclination(deg)": 45.0,
        "Latitude(deg)": -6.970153543890088,
        "Longitude(deg)": 67.58466790780624,
        "Mean Anomaly(deg)": -9.747175712761036,
        "RAAN(deg)": 174.99383178095292,
        "Satellite Name": "Constellation 1 791",
        "Satellite Number": 791,
        "Semi-Major Axis(m)": 7083131.272910544,
        "Time(s)": 109
    },
    {
        "Altitude(m)": 704591.5575494671,
        "Argument of Periapsis(deg)": 0.0065942806869946176,
        "Eccentricity": 0.0,
        "Inclination(deg)": 45.0,
        "Latitude(deg)": -6.927275191878454,
        "Longitude(deg)": 67.6240362391718,
        "Mean Anomaly(deg)": -9.686474572511202,
        "RAAN(deg)": 174.99377519178736,
        "Satellite Name": "Constellation 1 791",
        "Satellite Number": 791,
        "Semi-Major Axis(m)": 7083131.272910544,
        "Time(s)": 110
    },
    {
        "Altitude(m)": 704582.7877551006,
        "Argument of Periapsis(deg)": 0.006654228693240024,
        "Eccentricity": 0.0,
        "Inclination(deg)": 45.0,
        "Latitude(deg)": -6.884392704341374,
        "Longitude(deg)": 67.66339663900821,
        "Mean Anomaly(deg)": -9.625773432261315,
        "RAAN(deg)": 174.99371860262178,
        "Satellite Name": "Constellation 1 791",
        "Satellite Number": 791,
        "Semi-Major Axis(m)": 7083131.272910544,
        "Time(s)": 111
    },
    {
        "Altitude(m)": 704574.0364171045,
        "Argument of Periapsis(deg)": 0.006714176699485429,
        "Eccentricity": 0.0,
        "Inclination(deg)": 45.0,
        "Latitude(deg)": -6.841506107338196,
        "Longitude(deg)": 67.70274949311165,
        "Mean Anomaly(deg)": -9.565072292011378,
        "RAAN(deg)": 174.99366201345623,
        "Satellite Name": "Constellation 1 791",
        "Satellite Number": 791,
        "Semi-Major Axis(m)": 7083131.272910544,
        "Time(s)": 112
    },
    {
        "Altitude(m)": 704565.3035563874,
        "Argument of Periapsis(deg)": 0.006774124705730835,
        "Eccentricity": 0.0,
        "Inclination(deg)": 45.0,
        "Latitude(deg)": -6.798615426914406,
        "Longitude(deg)": 67.7420946829708,
        "Mean Anomaly(deg)": -9.504371151761413,
        "RAAN(deg)": 174.99360542429065,
        "Satellite Name": "Constellation 1 791",
        "Satellite Number": 791,
        "Semi-Major Axis(m)": 7083131.272910544,
        "Time(s)": 113
    }
]